C/2020 N2 (ATLAS),e,161.0390,257.1773,331.1851,101.0596,0.0009701,0.98235752,0.0000,08/24.3012/2020,2000,g 16.0,3.2
# From MPEC 2024-JU4
C/2020 O2 (Amaral),e,71.7627,256.7901,10.1596,8660,0.0000012,0.99943928,0.0000,08/27.1490/2021,2000,g  8.0,3.2
# From MPEC 2023-C45
P/2020 O3 (PANSTARRS),e,8.4444,266.8165,81.1541,4.646129,0.0984163,0.10239764,166.4794,09/12.0/2025,2000,g 12.0,4.0
# From MPEC 2021-BE3
C/2020 P1 (NEOWISE),h,10/21.2707/2020,45.0948,53.4913,8.9386,1.000446,0.342061,2000,14.0,3.2
# From MPEC 2024-JU4
C/2020 P3 (ATLAS),h,04/23.0464/2021,61.8496,19.4861,82.3568,1.003811,6.816622,2000,6.0,4.0
# From MPEC 2022-PB4
C/2020 PV6 (PANSTARRS),e,128.1473,329.1249,71.2708,41.59944,0.0036734,0.94493154,5.3165,09/12.0/2025,2000,g 10.0,4.0
# From MPEC 2022-L66
C/2020 Q1 (Borisov),e,142.9166,52.4164,10.0345,62.44768,0.0019972,0.97887350,0.0000,08/15.4456/2020,2000,g 14.0,4.0
# From MPEC 2023-CD7
C/2020 Q2 (PANSTARRS),e,3.3359,179.8313,118.1837,10.59915,0.0285626,0.48869750,58.7715,09/12.0/2025,2000,g 12.0,3.2
# From MPEC 2024-F34
C/2020 R2 (PANSTARRS),e,53.2125,195.1319,211.8897,430.3782,0.0001104,0.98907925,0.0000,02/25.3438/2022,2000,g  9.0,4.0
# From MPEC 2022-K19
C/2020 R4 (ATLAS),e,164.3992,323.2284,46.4970,96.90197,0.0010332,0.98947208,0.0000,03/02.1399/2021,2000,g 13.5,4.0
# From MPEC 2023-C45
P/2020 R5 (PANSTARRS),e,11.4394,272.9368,82.7502,4.993723,0.0883217,0.31300737,170.8085,09/12.0/2025,2000,g  9.5,6.0
# From MPEC 2021-Y10
C/2020 R6 (Rankin),e,82.9025,12.2447,271.9964,290.0595,0.0001995,0.98917590,0.0000,09/06.7262/2019,2000,g 11.0,4.0
# From MPEC 2024-PC5
C/2020 R7 (ATLAS),e,114.9030,268.3105,347.7480,6584,0.0000018,0.99955175,0.0000,09/15.9990/2022,2000,g  7.0,3.2
# From MPEC 2021-BE3
P/2020 S1 (PANSTARRS),e,13.7139,129.4868,255.1756,6.002520,0.0670199,0.50673310,113.8854,09/12.0/2025,2000,g 14.0,4.0
# From MPEC 2022-ST7
C/2020 S2 (PANSTARRS),e,22.3699,197.7112,202.4340,10.25237,0.0300240,0.82787215,51.7928,09/12.0/2025,2000,g 17.0,4.0
# From MPEC 2024-JU4
C/2020 S3 (Erasmus),e,20.0763,222.5029,350.0488,140.8610,0.0005895,0.99721668,0.0000,12/11.3632/2020,2000,g 13.5,3.2
# From MPEC 2024-N80
C/2020 S4 (PANSTARRS),h,02/09.6431/2023,20.5708,117.6792,21.0696,1.002859,3.370629,2000,8.5,3.2
# From MPEC 2021-BE3
P/2020 S5 (PANSTARRS),e,12.3399,316.0160,53.2756,4.058769,0.1205348,0.33723312,224.3449,09/12.0/2025,2000,g 14.5,4.0
# From MPEC 2021-BE3
P/2020 S7 (PANSTARRS),e,16.0687,328.0801,40.6667,5.037201,0.0871807,0.40937728,153.4139,09/12.0/2025,2000,g 14.5,4.0
# From MPEC 2021-P47
C/2020 S8 (Lemmon),e,108.5474,23.9971,160.1181,237.7402,0.0002689,0.99009295,0.0000,04/10.2985/2021,2000,g 12.5,4.0
# From MPEC 2022-TD3
C/2020 T2 (Palomar),e,27.8402,83.0287,150.3337,267.1246,0.0002258,0.99232034,0.0000,07/10.5711/2021,2000,g 11.0,3.2
# From MPEC 2021-N06
P/2020 T3 (PANSTARRS),e,7.2983,73.9911,357.0861,3.515922,0.1495014,0.59243110,253.1823,09/12.0/2025,2000,g 18.0,3.2
# From MPEC 2021-N06
C/2020 T4 (PANSTARRS),h,07/06.1949/2021,83.8209,50.6028,79.5669,1.000681,2.187151,2000,13.0,3.2
# From MPEC 2021-BE3
C/2020 T5 (Lemmon),e,66.5620,237.8489,90.3864,598.6829,0.0000673,0.99682875,0.0000,10/07.5449/2020,2000,g 16.0,4.0
# From MPEC 2021-N06
P/2020 U2 (PANSTARRS),e,6.4199,342.8090,84.7842,3.777780,0.1342298,0.51131913,230.7968,09/12.0/2025,2000,g 18.0,4.0
# From MPEC 2021-W31
C/2020 U3 (Rankin),e,30.1382,282.5952,124.5342,67.71219,0.0017689,0.96622715,2.9701,09/12.0/2025,2000,g 15.0,4.0
# From MPEC 2024-TD8
C/2020 U4 (PANSTARRS),h,04/10.1148/2022,167.0036,120.4053,70.1837,1.001356,5.362400,2000,7.0,4.0
# From MPEC 2024-GJ3
C/2020 U5 (PANSTARRS),e,97.3151,107.3132,75.4681,15290,0.0000005,0.99975431,0.0000,04/28.4630/2022,2000,g  8.0,4.0
# From MPEC 2025-R69
C/2020 V2 (ZTF),h,05/08.5459/2023,131.6114,212.4068,162.4699,1.001113,2.229575,2000,4.9,4.0
# From MPEC 2023-D72
P/2020 V3 (PANSTARRS),e,23.0190,198.2703,249.8455,8.409620,0.0404147,0.25788114,67.4452,09/12.0/2025,2000,g  8.3,4.0
# From MPEC 2025-R69
P/2020 V4 (Rankin),e,14.2355,203.4888,257.2768,9.400154,0.0341981,0.45161477,51.7787,09/12.0/2025,2000,g  9.0,4.0
# From MPEC 2021-BE3
P/2020 W1 (Rankin),e,10.7767,124.3844,265.4105,7.226636,0.0507341,0.26533003,100.4965,09/12.0/2025,2000,g 10.0,4.0
# From MPEC 2021-BE3
C/2020 W5 (Lemmon),h,12/01.0200/2020,88.6139,75.4684,24.6184,1.002264,3.371565,2000,15.0,4.0
# From MPEC 2024-PC5
P/2020 WJ5 (Lemmon),e,22.2884,177.7577,338.0961,6.015520,0.0668027,0.17220457,102.4923,09/12.0/2025,2000,g  8.5,4.0
# From MPEC 2024-F34
P/2020 X1 (ATLAS),e,31.6903,55.9893,323.5278,4.536594,0.1020021,0.36427849,191.7873,09/12.0/2025,2000,g 13.0,4.0
# From MPEC 2024-A43
C/2020 X2 (ATLAS),e,18.1870,105.3525,347.5900,16.54895,0.0146403,0.76836385,25.7630,09/12.0/2025,2000,g 10.6,4.0
# From MPEC 2021-S45
C/2020 X4 (Leonard),e,80.6623,161.9627,140.2842,40.56561,0.0038148,0.87122876,6.7202,09/12.0/2025,2000,g  9.0,4.0
# From MPEC 2024-YC7
C/2020 Y2 (ATLAS),e,101.2216,26.5421,266.4161,1239,0.0000226,0.99746033,0.0000,06/17.6971/2022,2000,g  6.5,4.0
# From MPEC 2021-R75
C/2020 Y3 (ATLAS),e,83.1514,191.3305,341.8470,137.3326,0.0006124,0.98550983,0.0000,12/03.2279/2020,2000,g 13.5,4.0
# From MPEC 2025-A40
C/2021 A1 (Leonard),h,01/03.9114/2022,132.7508,255.9097,225.1320,1.000259,0.615105,2000,8.5,4.0
# From MPEC 2025-A40
C/2021 A2 (NEOWISE),e,107.0612,125.0508,338.8080,230.0433,0.0002825,0.99384019,0.0000,01/21.8184/2021,2000,g 13.5,4.0
# From MPEC 2022-ED3
C/2021 A4 (NEOWISE),e,111.6603,307.0880,204.7598,42.56313,0.0035494,0.97296644,0.0000,03/19.6184/2021,2000,g 16.0,4.0
# From MPEC 2021-BE3
P/2021 A5 (PANSTARRS),e,18.1901,328.8099,61.5617,3.046110,0.1853897,0.13974363,326.5582,09/12.0/2025,2000,g 15.0,4.0
# From MPEC 2024-P23
C/2021 A6 (PANSTARRS),e,75.5605,164.0186,351.6317,13372,0.0000006,0.99940733,0.0000,05/03.1482/2021,2000,g  7.0,4.0
# From MPEC 2022-M88
C/2021 A7 (NEOWISE),e,78.2274,154.3906,356.0065,1921,0.0000117,0.99897692,0.0000,07/15.1745/2021,2000,g 10.0,4.0
# From MPC182879
C/2021 A9 (PANSTARRS),e,158.0180,314.8529,211.6500,49794,0.0000001,0.99984407,0.0000,12/04.1377/2023,2000,g  6.0,4.0
# From MPEC 2021-N06
C/2021 A10 (NEOWISE),e,152.0020,188.8570,82.6706,89.83638,0.0011575,0.98589180,0.0000,03/14.6919/2021,2000,g 19.0,4.0
# From MPEC 2022-L66
C/2021 B2 (PANSTARRS),e,38.0881,120.4303,335.1382,413.2705,0.0001173,0.99391257,0.0000,05/04.8789/2021,2000,g 14.0,4.0
# From MPEC 2021-N06
C/2021 B3 (NEOWISE),e,119.4792,67.2871,293.6189,34.22451,0.0049226,0.93661219,8.1118,09/12.0/2025,2000,g 13.5,4.0
# From MPEC 2023-KD6
C/2021 C1 (Rankin),e,143.0435,186.8163,336.0440,1716,0.0000139,0.99797561,0.0000,12/05.5528/2020,2000,g 11.5,4.0
# From MPEC 2021-U31
P/2021 C2 (PANSTARRS),e,21.9373,66.4548,78.7310,9.547046,0.0334118,0.48847010,55.4690,09/12.0/2025,2000,g 12.0,4.0
# From MPEC 2024-M41
C/2021 C3 (Catalina),e,122.2161,181.8409,356.9707,60.35897,0.0021018,0.96231701,3.5185,09/12.0/2025,2000,g 14.0,4.0
# From MPEC 2022-M88
C/2021 C4 (ATLAS),e,132.8288,194.2201,320.0088,3380,0.0000050,0.99867063,0.0000,01/16.0331/2021,2000,g  9.0,4.0
# From MPEC 2024-N80
C/2021 C5 (PANSTARRS),e,50.8048,323.6742,270.8818,1686,0.0000142,0.99807820,0.0000,02/10.9817/2023,2000,g  9.0,4.0
# From MPEC 2022-YB4
C/2021 C6 (Lemmon),e,164.6101,332.3230,203.8762,2697,0.0000070,0.99878134,0.0000,11/11.7794/2021,2000,g 12.0,4.0
# From MPEC 2022-F14
C/2021 D1 (SWAN),e,31.3483,311.1483,72.4848,102.0415,0.0009562,0.99109255,0.0000,02/27.2322/2021,2000,g 13.0,4.0
# From MPEC 2023-J29
C/2021 D2 (ZTF),h,02/03.5722/2022,83.7685,305.6219,125.0762,1.001411,2.950310,2000,9.0,4.0
# From MPEC 2022-UY9
A/2021 E2,e,167.4950,190.7383,342.2043,198.6853,0.0003519,0.98850824,0.0000,12/08.7305/2020,2000,g 15.0,2.0
# From MPEC 2024-GJ3
C/2021 E3 (ZTF),e,112.5218,104.4839,228.7930,6472,0.0000019,0.99972535,0.0000,06/10.9709/2022,2000,g  8.5,4.0
# From MPEC 2024-N80
A/2021 E4,e,116.3868,171.1366,48.2887,504.0209,0.0000871,0.99071358,0.0000,04/24.8190/2022,2000,g 13.5,2.0
# From MPEC 2022-QD9
C/2021 F1 (Lemmon-PANSTARRS),e,107.2840,203.5658,146.9564,249.2817,0.0002504,0.99599049,0.0000,04/06.7393/2022,2000,g 13.5,4.0
# From MPEC 2021-J72
C/2021 G1 (Leonard),e,131.5464,270.6970,107.4398,70.94026,0.0016495,0.95166730,2.4988,09/12.0/2025,2000,g 14.0,4.0
# From MPEC 2025-R69
C/2021 G2 (ATLAS),h,09/09.1263/2024,48.4649,221.0936,343.2647,1.000811,4.982173,2000,5.5,4.0
# From MPEC 2022-X67
C/2021 G3 (PANSTARRS),e,102.8745,147.3384,10.6044,9150,0.0000011,0.99943351,0.0000,10/17.8666/2021,2000,g 10.5,4.0
# From MPEC 2021-Y10
P/2021 HS (PANSTARRS),e,12.1530,262.3519,46.1155,4.193192,0.1147855,0.80948630,172.1248,09/12.0/2025,2000,g 22.0,4.0
# From MPEC 2022-C56
C/2021 J1 (Maury-Attard),e,92.7072,88.4336,147.1824,26.17811,0.0073586,0.93380293,12.2562,09/12.0/2025,2000,g 15.5,4.0
# From MPEC 2023-XP6
C/2021 J2 (PANSTARRS),e,156.2117,23.3050,171.8715,111.1862,0.0008407,0.95771497,1.2210,09/12.0/2025,2000,g 12.0,4.0
# From MPEC 2024-F34
P/2021 J3 (ATLAS),e,14.5137,110.9775,125.5983,8.886207,0.0372074,0.44951969,84.3076,09/12.0/2025,2000,g  7.0,4.0
# From MPEC 2022-O08
C/2021 K1 (ATLAS),e,16.2703,140.9266,184.2155,12.59860,0.0220405,0.80135903,35.1311,09/12.0/2025,2000,g 11.0,4.0
# From MPEC 2022-O01
C/2021 K2 (MASTER),h,09/09.1577/2021,100.8719,282.3401,343.2624,1.000347,5.462526,2000,8.0,4.0
# From MPEC 2022-L66
C/2021 K3 (Catalina),h,02/03.5648/2022,134.7805,114.6124,182.0022,1.004090,5.226620,2000,10.0,4.0
# From MPEC 2021-W31
P/2021 L2 (Leonard),e,21.0636,266.6501,51.4202,4.047234,0.1210505,0.52090272,183.0720,09/12.0/2025,2000,g 17.0,4.0
# From MPEC 2024-H50
C/2021 L3 (Borisov),h,02/15.0180/2022,78.5326,345.0202,91.6546,1.004495,8.460707,2000,6.0,4.0
# From MPEC 2022-TA0
P/2021 N1 (ZTF),e,11.4853,301.1330,21.2233,2.979984,0.1915946,0.67572074,298.9112,09/12.0/2025,2000,g 19.0,4.0
# From MPEC 2024-GJ3
P/2021 N2 (Fuls),e,13.0597,221.7458,177.6407,6.947371,0.0538237,0.45203452,75.2420,09/12.0/2025,2000,g  9.5,4.0
# From MPEC 2022-YB4
